{
  "type": "FeatureCollection",
  "name": "CityScope Lanzhou OSM sample",
  "source": "© OpenStreetMap contributors",
  "features": [
    {
      "type": "Feature",
      "geometry": {
        "type": "Point",
        "coordinates": [
          103.7492843,
          36.0675844
        ]
      },
      "properties": {
        "id": 1,
        "osm_type": "node",
        "osm_id": "3481086575",
        "name": "兰州西",
        "category": "transport",
        "subcategory": "station",
        "source": "OpenStreetMap"
      }
    },
    {
      "type": "Feature",
      "geometry": {
        "type": "Point",
        "coordinates": [
          103.7438214,
          36.0534599
        ]
      },
      "properties": {
        "id": 2,
        "osm_type": "node",
        "osm_id": "4326995214",
        "name": "兰州工业学院",
        "category": "transport",
        "subcategory": "bus_stop",
        "source": "OpenStreetMap"
      }
    },
    {
      "type": "Feature",
      "geometry": {
        "type": "Point",
        "coordinates": [
          103.7437946,
          36.0536203
        ]
      },
      "properties": {
        "id": 3,
        "osm_type": "node",
        "osm_id": "4326995215",
        "name": "兰州工业学院",
        "category": "transport",
        "subcategory": "bus_stop",
        "source": "OpenStreetMap"
      }
    },
    {
      "type": "Feature",
      "geometry": {
        "type": "Point",
        "coordinates": [
          103.7397954,
          36.0475592
        ]
      },
      "properties": {
        "id": 4,
        "osm_type": "node",
        "osm_id": "4326995217",
        "name": "五一五医院",
        "category": "transport",
        "subcategory": "bus_stop",
        "source": "OpenStreetMap"
      }
    },
    {
      "type": "Feature",
      "geometry": {
        "type": "Point",
        "coordinates": [
          103.7395379,
          36.0476156
        ]
      },
      "properties": {
        "id": 5,
        "osm_type": "node",
        "osm_id": "4326995218",
        "name": "五一五医院",
        "category": "transport",
        "subcategory": "bus_stop",
        "source": "OpenStreetMap"
      }
    },
    {
      "type": "Feature",
      "geometry": {
        "type": "Point",
        "coordinates": [
          103.7472171,
          36.0546113
        ]
      },
      "properties": {
        "id": 6,
        "osm_type": "node",
        "osm_id": "4326995226",
        "name": "兰州工",
        "category": "transport",
        "subcategory": "bus_stop",
        "source": "OpenStreetMap"
      }
    },
    {
      "type": "Feature",
      "geometry": {
        "type": "Point",
        "coordinates": [
          103.747201,
          36.0547631
        ]
      },
      "properties": {
        "id": 7,
        "osm_type": "node",
        "osm_id": "4326995227",
        "name": "兰州工",
        "category": "transport",
        "subcategory": "bus_stop",
        "source": "OpenStreetMap"
      }
    },
    {
      "type": "Feature",
      "geometry": {
        "type": "Point",
        "coordinates": [
          103.7381941,
          36.0454209
        ]
      },
      "properties": {
        "id": 8,
        "osm_type": "node",
        "osm_id": "4326995236",
        "name": "市三医院",
        "category": "transport",
        "subcategory": "bus_stop",
        "source": "OpenStreetMap"
      }
    },
    {
      "type": "Feature",
      "geometry": {
        "type": "Point",
        "coordinates": [
          103.7380278,
          36.045473
        ]
      },
      "properties": {
        "id": 9,
        "osm_type": "node",
        "osm_id": "4326995237",
        "name": "市三医院",
        "category": "transport",
        "subcategory": "bus_stop",
        "source": "OpenStreetMap"
      }
    },
    {
      "type": "Feature",
      "geometry": {
        "type": "Point",
        "coordinates": [
          103.7501514,
          36.0543555
        ]
      },
      "properties": {
        "id": 10,
        "osm_type": "node",
        "osm_id": "4326995246",
        "name": "杨家桥",
        "category": "transport",
        "subcategory": "bus_stop",
        "source": "OpenStreetMap"
      }
    },
    {
      "type": "Feature",
      "geometry": {
        "type": "MultiPolygon",
        "coordinates": [
          [
            [
              [
                103.7310178,
                36.0604599
              ],
              [
                103.7310912,
                36.0604353
              ],
              [
                103.7311063,
                36.0604647
              ],
              [
                103.7310329,
                36.0604893
              ],
              [
                103.7310872,
                36.0605952
              ],
              [
                103.7311612,
                36.0605703
              ],
              [
                103.7311773,
                36.0606016
              ],
              [
                103.7311033,
                36.0606265
              ],
              [
                103.731159,
                36.0607352
              ],
              [
                103.7312336,
                36.0607102
              ],
              [
                103.7312787,
                36.060798
              ],
              [
                103.7319283,
                36.0605802
              ],
              [
                103.731706,
                36.060147
              ],
              [
                103.7316035,
                36.0601814
              ],
              [
                103.7315872,
                36.0601496
              ],
              [
                103.7309655,
                36.060358
              ],
              [
                103.7310178,
                36.0604599
              ]
            ],
            [
              [
                103.7312412,
                36.0604301
              ],
              [
                103.7315687,
                36.0603268
              ],
              [
                103.7316799,
                36.0605569
              ],
              [
                103.7314562,
                36.0606275
              ],
              [
                103.7314319,
                36.0605771
              ],
              [
                103.7313281,
                36.0606099
              ],
              [
                103.7312412,
                36.0604301
              ]
            ]
          ]
        ]
      },
      "properties": {
        "id": 1,
        "osm_type": "relation",
        "osm_id": "6132191",
        "name": "蔚云楼",
        "building_type": "school",
        "area_m2": 2968.68,
        "source": "OpenStreetMap"
      }
    },
    {
      "type": "Feature",
      "geometry": {
        "type": "MultiPolygon",
        "coordinates": [
          [
            [
              [
                103.7306933,
                36.0597529
              ],
              [
                103.7307667,
                36.0597283
              ],
              [
                103.7307818,
                36.0597578
              ],
              [
                103.7307084,
                36.0597824
              ],
              [
                103.7307627,
                36.0598882
              ],
              [
                103.7308367,
                36.0598634
              ],
              [
                103.7308528,
                36.0598947
              ],
              [
                103.7307788,
                36.0599195
              ],
              [
                103.7308346,
                36.0600283
              ],
              [
                103.7309091,
                36.0600033
              ],
              [
                103.7309542,
                36.0600911
              ],
              [
                103.7316038,
                36.0598732
              ],
              [
                103.7314701,
                36.0596127
              ],
              [
                103.731424,
                36.0596281
              ],
              [
                103.7313354,
                36.0594555
              ],
              [
                103.731279,
                36.0594744
              ],
              [
                103.7312627,
                36.0594426
              ],
              [
                103.730641,
                36.0596511
              ],
              [
                103.7306933,
                36.0597529
              ]
            ],
            [
              [
                103.7309167,
                36.0597232
              ],
              [
                103.7312442,
                36.0596198
              ],
              [
                103.7313554,
                36.0598499
              ],
              [
                103.7311317,
                36.0599206
              ],
              [
                103.7311074,
                36.0598702
              ],
              [
                103.7310036,
                36.059903
              ],
              [
                103.7309167,
                36.0597232
              ]
            ]
          ]
        ]
      },
      "properties": {
        "id": 2,
        "osm_type": "relation",
        "osm_id": "6132192",
        "name": "抒望楼",
        "building_type": "school",
        "area_m2": 2875.39,
        "source": "OpenStreetMap"
      }
    },
    {
      "type": "Feature",
      "geometry": {
        "type": "MultiPolygon",
        "coordinates": [
          [
            [
              [
                103.7303258,
                36.0602968
              ],
              [
                103.7302368,
                36.0601053
              ],
              [
                103.730175,
                36.0601241
              ],
              [
                103.730057,
                36.0598705
              ],
              [
                103.7296889,
                36.0599824
              ],
              [
                103.7296534,
                36.0599061
              ],
              [
                103.7294718,
                36.0599245
              ],
              [
                103.7296446,
                36.0602959
              ],
              [
                103.729592,
                36.0603119
              ],
              [
                103.7296767,
                36.0604941
              ],
              [
                103.7303258,
                36.0602968
              ]
            ],
            [
              [
                103.7297503,
                36.0600736
              ],
              [
                103.7299656,
                36.0600082
              ],
              [
                103.7300422,
                36.0601728
              ],
              [
                103.7298269,
                36.0602382
              ],
              [
                103.7297503,
                36.0600736
              ]
            ]
          ]
        ]
      },
      "properties": {
        "id": 3,
        "osm_type": "relation",
        "osm_id": "6132193",
        "name": "石化楼",
        "building_type": "yes",
        "area_m2": 2729.88,
        "source": "OpenStreetMap"
      }
    },
    {
      "type": "Feature",
      "geometry": {
        "type": "MultiPolygon",
        "coordinates": [
          [
            [
              [
                103.7300416,
                36.0569307
              ],
              [
                103.7299705,
                36.0567821
              ],
              [
                103.7291603,
                36.0570354
              ],
              [
                103.7292314,
                36.057184
              ],
              [
                103.7292854,
                36.0571671
              ],
              [
                103.7293516,
                36.0573056
              ],
              [
                103.7292476,
                36.0573685
              ],
              [
                103.7293395,
                36.0574594
              ],
              [
                103.7294071,
                36.0576006
              ],
              [
                103.7294895,
                36.0575748
              ],
              [
                103.7295164,
                36.0576311
              ],
              [
                103.7296584,
                36.0575866
              ],
              [
                103.7296325,
                36.0575325
              ],
              [
                103.7297059,
                36.0575095
              ],
              [
                103.7297323,
                36.0575646
              ],
              [
                103.7298718,
                36.057521
              ],
              [
                103.7298464,
                36.057468
              ],
              [
                103.7299253,
                36.0574433
              ],
              [
                103.7299512,
                36.0574973
              ],
              [
                103.730083,
                36.0574561
              ],
              [
                103.7300583,
                36.0574045
              ],
              [
                103.7302326,
                36.05735
              ],
              [
                103.7301619,
                36.0572022
              ],
              [
                103.7300416,
                36.0569307
              ]
            ],
            [
              [
                103.7293412,
                36.0571497
              ],
              [
                103.7298969,
                36.056976
              ],
              [
                103.7294014,
                36.0572755
              ],
              [
                103.7293412,
                36.0571497
              ]
            ]
          ]
        ]
      },
      "properties": {
        "id": 4,
        "osm_type": "relation",
        "osm_id": "6210981",
        "name": "观成楼",
        "building_type": "yes",
        "area_m2": 5060.87,
        "source": "OpenStreetMap"
      }
    },
    {
      "type": "Feature",
      "geometry": {
        "type": "MultiPolygon",
        "coordinates": [
          [
            [
              [
                103.7285475,
                36.0579324
              ],
              [
                103.7287165,
                36.057839
              ],
              [
                103.7286739,
                36.05775
              ],
              [
                103.7289157,
                36.0576744
              ],
              [
                103.7290441,
                36.0576342
              ],
              [
                103.7290062,
                36.057555
              ],
              [
                103.7289254,
                36.057386
              ],
              [
                103.7289701,
                36.057372
              ],
              [
                103.728884,
                36.057192
              ],
              [
                103.7282364,
                36.0573945
              ],
              [
                103.7283225,
                36.0575745
              ],
              [
                103.7283675,
                36.0575604
              ],
              [
                103.7285475,
                36.0579324
              ]
            ],
            [
              [
                103.7288778,
                36.0575951
              ],
              [
                103.728636,
                36.0576707
              ],
              [
                103.7285552,
                36.0575018
              ],
              [
                103.7287969,
                36.0574262
              ],
              [
                103.7288778,
                36.0575951
              ]
            ]
          ]
        ]
      },
      "properties": {
        "id": 5,
        "osm_type": "relation",
        "osm_id": "6210983",
        "name": "田家炳科学实验楼",
        "building_type": "yes",
        "area_m2": 2687.18,
        "source": "OpenStreetMap"
      }
    }
  ]
}